IRIDIUM 155             
1 43573U 18061E   22131.46008027  .00000113  00000+0  33214-4 0  9995
2 43573  86.3937 322.6117 0001960  97.3166 262.8253 14.34214041198684
IRIDIUM 154             
1 43574U 18061F   22131.51082120  .00000059  00000+0  13909-4 0  9996
2 43574  86.3941 322.6522 0002141  81.8811 278.2628 14.34216799198743
IRIDIUM 163             
1 43575U 18061G   22131.49177710  .00000058  00000+0  13781-4 0  9991
2 43575  86.3938 322.6213 0002555  89.4489 270.6999 14.34219473198717
IRIDIUM 156             
1 43576U 18061H   22131.46642358  .00000056  00000+0  12980-4 0  9992
2 43576  86.3939 322.6372 0002313  96.4661 263.6798 14.34219278198708
IRIDIUM 164             
1 43577U 18061J   22131.44738313  .00000053  00000+0  11745-4 0  9993
2 43577  86.3941 322.6627 0002283  83.6659 276.4797 14.34219400198748
IRIDIUM 159             
1 43578U 18061K   22131.48543205  .00000049  00000+0  10444-4 0  9992
2 43578  86.3938 322.6150 0002181  84.2885 275.8559 14.34220203198710
IRIDIUM 180             
1 43922U 19002A   22131.41518572  .00000155  00000+0  48216-4 0  9999
2 43922  86.3966 259.4690 0002516  80.4730 279.6750 14.34213487174310
IRIDIUM 176             
1 43923U 19002B   22131.42253268  .00000575  00000+0  87295-4 0  9995
2 43923  86.6099 259.5001 0002332  97.6185 262.5297 14.72248635178886
IRIDIUM 168             
1 43924U 19002C   22131.40883714  .00000174  00000+0  55096-4 0  9998
2 43924  86.3968 259.5068 0002186  87.7201 272.4245 14.34214998174295
IRIDIUM 173             
1 43925U 19002D   22131.39613618  .00000172  00000+0  54393-4 0  9998
2 43925  86.3964 259.4620 0002256  88.9498 271.1956 14.34222580174273
IRIDIUM 169             
1 43926U 19002E   22131.43821409  .00000228  00000+0  68046-4 0  9995
2 43926  86.4186 291.0649 0003186 210.0506 150.0510 14.38605010174891
IRIDIUM 172             
1 43927U 19002F   22131.45958435  .00000175  00000+0  55312-4 0  9991
2 43927  86.3965 259.4388 0002280  87.3434 272.8023 14.34213651174291
IRIDIUM 175             
1 43928U 19002G   22131.07646737  .00000578  00000+0  87821-4 0  9996
2 43928  86.6103 259.4742 0002394  89.1346 271.0145 14.72256355178820
IRIDIUM 171             
1 43929U 19002H   22131.44054993  .00000174  00000+0  55141-4 0  9997
2 43929  86.3974 259.5868 0002149  87.9088 272.2354 14.34214308174282
IRIDIUM 170             
1 43930U 19002J   22131.42875705  .00000571  00000+0  86692-4 0  9995
2 43930  86.6099 259.5031 0002080  91.4936 268.6519 14.72246695178892
IRIDIUM 167             
1 43931U 19002K   22131.43421419  .00000182  00000+0  57871-4 0  9991
2 43931  86.3965 259.4586 0002326  82.1133 278.0326 14.34213915174282
